ANIK F1R                
1 28868U 05036A   18040.52063003 -.00000084  00000-0  00000+0 0  9990
2 28868   0.0120  62.2581 0002701 299.8603 217.5146  1.00272206 45575
GALAXY 15 (G-15)        
1 28884U 05041A   18039.46441809  .00000067  00000-0  00000-0 0  9990
2 28884   0.0077 294.8615 0002173  28.5313 209.2951  1.00274132 45160
SYRACUSE 3A             
1 28885U 05041B   18040.17068638  .00000119  00000-0  00000+0 0  9993
2 28885   0.0096  78.1808 0002458 239.0198 290.4382  1.00268523 45140
INMARSAT 4-F2           
1 28899U 05044A   18039.48267505 -.00000001  00000-0  00000-0 0  9999
2 28899   2.6328  15.8523 0003331 316.2086  44.1006  1.00272696 44937
TELKOM 2                
1 28902U 05046A   18039.79563135 -.00000149  00000-0  00000+0 0  9990
2 28902   0.0065  95.6974 0000879   0.3001 126.2412  1.00271515 44651
SPACEWAY 2              
1 28903U 05046B   18040.32898705 -.00000137  00000-0  00000+0 0  9993
2 28903   0.0049 118.1451 0000168 328.4872  72.0686  1.00270878 44917
INSAT-4A                
1 28911U 05049A   18039.38473205 -.00000177  00000-0  00000+0 0  9997
2 28911   0.0367 265.8243 0005738  36.4782  57.6106  1.00275346 44508
METEOSAT-9 (MSG-2)      
1 28912U 05049B   18039.80420146  .00000048  00000-0  00000-0 0  9998
2 28912   2.6688  71.6607 0003053 264.7891 101.1182  1.00271602 44459
EUTELSAT 172A (GE-23)   
1 28924U 05052A   18039.76084644 -.00000002  00000-0  00000+0 0  9999
2 28924   0.0650   8.8033 0005922 315.0651 262.8188  1.00270660 44396
ECHOSTAR 10             
1 28935U 06003A   18040.51572932 -.00000066  00000-0  00000+0 0  9995
2 28935   0.0423 282.0451 0001403  14.1620 278.7775  1.00272720 43935
HIMAWARI-7 (MTSAT-2)    
1 28937U 06004A   18039.90007462 -.00000254  00000-0  00000-0 0  9990
2 28937   0.0079  26.9452 0003569 299.9241 281.0935  1.00273785 43899
SPAINSAT                
1 28945U 06007A   18039.69780232 -.00000228  00000-0  00000+0 0  9991
2 28945   0.0580 261.5605 0004635  39.3148  59.0480  1.00270524 43648
EUTELSAT HOT BIRD 13E   
1 28946U 06007B   18039.57883093  .00000075  00000-0  00000-0 0  9998
2 28946   0.0366 223.0713 0002638  81.8399  55.0328  1.00273525 43703
JCSAT-5A                
1 29045U 06010A   18040.10740373 -.00000339  00000-0  00000+0 0  9990
2 29045   0.0476 271.2669 0002369  84.6618 313.9179  1.00271734 43358
ASTRA 1KR               
1 29055U 06012A   18039.88448729  .00000109  00000-0  00000+0 0  9990
2 29055   0.0673 273.2806 0003843   9.7867 193.4243  1.00273548 43151
GOES 13                 
1 29155U 06018A   18038.78272639 -.00000296  00000-0  00000-0 0  9999
2 29155   0.3370 102.4260 0004007 302.6777 314.8969  1.00256071 12796
EUTELSAT 113 WEST A     
1 29162U 06020A   18038.93053207 -.00000049  00000-0  00000-0 0  9991
2 29162   0.0099 100.6686 0003012 226.9130  32.3681  1.00271792 42880
THAICOM 5               
1 29163U 06020B   18039.85466010 -.00000133  00000-0  00000-0 0  9998
2 29163   0.0374 258.9269 0005344  52.6533 213.4695  1.00273308 42918
GALAXY 16 (G-16)        
1 29236U 06023A   18040.53381677 -.00000137  00000-0  00000+0 0  9997
2 29236   0.0147 104.7314 0002485 227.8178 260.1594  1.00272485 42686
EUTELSAT HOT BIRD 13B   
1 29270U 06032A   18040.09467872  .00000076  00000-0  00000+0 0  9999
2 29270   0.0714 338.6899 0005427 349.7714 217.6988  1.00272840 42273
JCSAT-3A                
1 29272U 06033A   18039.82063236 -.00000356  00000-0  00000+0 0  9999
2 29272   0.0495 272.2827 0002129  79.7567 210.2307  1.00271341 42175
SYRACUSE 3B             
1 29273U 06033B   18040.49073707 -.00000054  00000-0  00000+0 0  9994
2 29273   0.0143 106.8706 0004974 218.8999 345.1760  1.00272429 42167
KOREASAT 5 (MUGUNGWHA 5)
1 29349U 06034A   18039.87268258 -.00000369  00000-0  00000+0 0  9995
2 29349   0.0169 102.9823 0001368 257.3090 205.8031  1.00269950 42045
ZHONGXING-22A           
1 29398U 06038A   18039.79274649  .00000093  00000-0  00000-0 0  9999
2 29398   6.1774  56.4612 0004859 270.3786 151.7247  1.00068741 41820
DIRECTV 9S              
1 29494U 06043A   18039.31876771 -.00000125  00000-0  00000-0 0  9991
2 29494   0.0221 120.4981 0003057 209.8489 181.6474  1.00272033 20815
OPTUS D1                
1 29495U 06043B   18039.94073671 -.00000122  00000-0  00000+0 0  9995
2 29495   0.0503 271.1946 0003409  54.2947 312.1224  1.00272572 41552
XM-4 (BLUES)            
1 29520U 06049A   18040.50630778 -.00000033  00000-0  00000+0 0  9992
2 29520   0.0029 161.6405 0000128  34.9761   9.9221  1.00271820 41419
BADR-4                  
1 29526U 06051A   18040.09498363  .00000133  00000-0  00000+0 0  9997
2 29526   0.0573 319.1899 0005821   3.8066 236.3416  1.00267506 41300
FENGYUN 2D              
1 29640U 06053A   18039.50811525 -.00000374  00000-0  10000-3 0  9992
2 29640   4.8870  63.2504 0006321 320.4529  61.0731  1.00283598 40971
WILDBLUE-1              
1 29643U 06054A   18039.35323855 -.00000061  00000-0  00000-0 0  9992
2 29643   0.0223 208.8163 0001807 127.6740 177.8893  1.00273378 23216
AMC-18                  
1 29644U 06054B   18039.58938171 -.00000101  00000-0  00000+0 0  9995
2 29644   0.0092  47.5506 0002460 292.2511 266.0494  1.00274649 40962
MEASAT-3                
1 29648U 06056A   18040.42893135 -.00000252  00000-0  00000+0 0  9993
2 29648   0.0266 160.6593 0000597 176.1271  48.5439  1.00274375 40973
INSAT-4B                
1 30793U 07007A   18040.40768639 -.00000364  00000-0  00000+0 0  9995
2 30793   0.1057 272.9354 0003044  49.3579  75.1296  1.00270010 39987
SKYNET 5A               
1 30794U 07007B   18039.85948757 -.00000282  00000-0  00000-0 0  9994
2 30794   0.0670   1.2216 0003433 322.5349 219.6968  1.00270333 40117
ANIK F3                 
1 31102U 07009A   18039.58417198 -.00000012  00000-0  00000-0 0  9991
2 31102   0.0111  98.9057 0002086 241.3784 249.9001  1.00271721 15973
ASTRA 1L                
1 31306U 07016A   18039.88448729  .00000109  00000-0  00000-0 0  9998
2 31306   0.0789 294.2845 0005240  20.1844 162.0453  1.00274421 39456
GALAXY 17 (G-17)        
1 31307U 07016B   18039.57823993 -.00000185  00000-0  00000+0 0  9999
2 31307   0.0159  13.9672 0003115 323.4172 278.3544  1.00269562 39489
ZHONGXING-6B            
1 31800U 07031A   18040.11490775 -.00000372  00000-0  00000+0 0  9992
2 31800   0.0147 105.2432 0003307 210.5670 340.1904  1.00272417 38889
DIRECTV 10              
1 31862U 07032A   18038.90244126 -.00000115  00000-0  00000-0 0  9998
2 31862   0.0028  20.4700 0000059  79.6234 259.8755  1.00271680 38816
SPACEWAY 3              
1 32018U 07036A   18038.73796079 -.00000164  00000-0  00000-0 0  9990
2 32018   0.0050 128.2100 0000312 240.2545 300.0185  1.00271574 15980
BSAT-3A                 
1 32019U 07036B   18039.31040981 -.00000362  00000-0  00000-0 0  9990
2 32019   0.1001 255.9740 0002663  24.1752  79.7893  1.00272484 19921
INSAT-4CR               
1 32050U 07037A   18040.26504314  .00000115  00000-0  00000+0 0  9991
2 32050   0.1002 270.3949 0004694  33.1642 339.0078  1.00270656 38267
OPTUS D2                
1 32252U 07044A   18039.90214897 -.00000194  00000-0  00000-0 0  9995
2 32252   0.0542 278.2644 0003439  47.3748 290.0441  1.00273376 37988
INTELSAT 11 (IS-11)     
1 32253U 07044B   18040.37461065 -.00000279  00000-0  00000+0 0  9993
2 32253   0.0429 252.4700 0001363  80.3890 258.3922  1.00272971 37946
STAR ONE C1             
1 32293U 07056A   18038.79756999 -.00000289  00000-0  00000-0 0  9998
2 32293   0.0052 117.9880 0002731 207.2647  34.6975  1.00271371 21192
SKYNET 5B               
1 32294U 07056B   18039.88448729  .00000131  00000-0  00000+0 0  9993
2 32294   0.0693   1.4920 0003949 319.8237 161.1186  1.00276994 37613
ASTRA 4A (SIRIUS 4)     
1 32299U 07057A   18039.79391979  .00000021  00000-0  00000-0 0  9992
2 32299   0.0233 337.6255 0002884 356.3009  95.4952  1.00273067 37374
HORIZONS-2              
1 32388U 07063B   18040.22893164 -.00000193  00000-0  00000+0 0  9991
2 32388   0.0116  83.4490 0002885 253.5905 329.4570  1.00271965 37296
THURAYA-3               
1 32404U 08001A   18039.85462769 -.00000307  00000-0  00000-0 0  9991
2 32404   3.9558 356.5250 0004618 321.0863 227.4306  1.00272885 36931
EXPRESS-AM33            
1 32478U 08003A   18039.50747492 -.00000292  00000-0  00000-0 0  9998
2 32478   0.0521 244.2588 0000547 162.2384  11.2069  1.00270389 37020
THOR 5                  
1 32487U 08006A   18039.53101516 -.00000021  00000-0  00000-0 0  9995
2 32487   0.0380 266.1000 0002784  72.6696 350.1886  1.00272805 36712
KIZUNA (WINDS)          
1 32500U 08007A   18040.42896525 -.00000270  00000-0  00000+0 0  9998
2 32500   1.3375  88.9887 0002575 232.3357 115.5451  1.00270747 36451
AMC-14                  
1 32708U 08011A   18039.73066884  .00000077  00000-0  00000+0 0  9996
2 32708  19.5390  59.3326 0039941 349.6362  10.8358  1.00274867 37512
DIRECTV 11              
1 32729U 08013A   18040.53381698 -.00000136  00000-0  00000+0 0  9991
2 32729   0.0014 160.9686 0000427 278.5908 152.9638  1.00270673 36355
ICO G1                  
1 32763U 08016A   18040.42684812 -.00000176  00000-0  00000+0 0  9998
2 32763   3.7487 358.1758 0002881 334.0016 228.0840  1.00271586 35883
VINASAT-1               
1 32767U 08018A   18039.24934682 -.00000340  00000-0  00000+0 0  9998
2 32767   0.0380 278.0168 0001618  79.8189   2.1322  1.00273272 36012
STAR ONE C2             
1 32768U 08018B   18039.80878737 -.00000276  00000-0  00000+0 0  9997
2 32768   0.0202 160.6708 0001270 186.7036  12.5916  1.00270355 35961
TIANLIAN 1-01           
1 32779U 08019A   18040.13660422 -.00000150  00000-0  10000-3 0  9994
2 32779   2.7007  74.6384 0038585 235.5220 318.0995  1.00277710 35880
AMOS-3                  
1 32794U 08022A   18040.49073707 -.00000046  00000-0  00000+0 0  9997
2 32794   0.0502 261.8348 0002271  44.8777   5.3305  1.00271609 35869
